SPAWAR-CAL-O            
1 43766U 18099J   26068.73975788  .00021069  00000+0  69663-3 0  9999
2 43766  97.4452 132.0993 0007239 285.0670  74.9770 15.31356755398280
STARLINK-35139          
1 66380U 25257A   26068.68004662  .00026103  00000+0  89027-3 0  9998
2 66380  53.1592 216.9569 0001082  70.9762 289.1356 15.30203031 19675
