[{"OBJECT_NAME":"SPAWAR-CAL-O","OBJECT_ID":"2018-099J","EPOCH":"2026-03-09T17:45:15.080832","MEAN_MOTION":15.31356755,"ECCENTRICITY":0.00072392,"INCLINATION":97.4452,"RA_OF_ASC_NODE":132.0993,"ARG_OF_PERICENTER":285.067,"MEAN_ANOMALY":74.977,"EPHEMERIS_TYPE":0,"CLASSIFICATION_TYPE":"U","NORAD_CAT_ID":43766,"ELEMENT_SET_NO":999,"REV_AT_EPOCH":39828,"BSTAR":0.00069663212,"MEAN_MOTION_DOT":0.00021069,"MEAN_MOTION_DDOT":0},{"OBJECT_NAME":"STARLINK-35139","OBJECT_ID":"2025-257A","EPOCH":"2026-03-09T16:19:16.027968","MEAN_MOTION":15.30203031,"ECCENTRICITY":0.00010818,"INCLINATION":53.1592,"RA_OF_ASC_NODE":216.9569,"ARG_OF_PERICENTER":70.9762,"MEAN_ANOMALY":289.1356,"EPHEMERIS_TYPE":0,"CLASSIFICATION_TYPE":"U","NORAD_CAT_ID":66380,"ELEMENT_SET_NO":999,"REV_AT_EPOCH":1967,"BSTAR":0.00089027174,"MEAN_MOTION_DOT":0.00026103,"MEAN_MOTION_DDOT":0}]
